STARLINK-3562           
1 51861U 22022K   24292.91098436  .00000991  00000+0  80344-4 0  9999
2 51861  53.2145 124.1353 0001566  93.2209 266.8962 15.08836480146592
STARLINK-3508           
1 51862U 22022L   24292.92202498  .00000762  00000+0  65952-4 0  9990
2 51862  53.2150 124.0867 0001366  96.2755 263.8393 15.08835680146669
STARLINK-3555           
1 51863U 22022M   24293.23481913  .00004139  00000+0  27794-3 0  9990
2 51863  53.2140 122.6820 0001414  90.8059 269.3095 15.08846323146658
STARLINK-3548           
1 51864U 22022N   24292.90729471  .00001623  00000+0  12008-3 0  9995
2 51864  53.2144 124.0750 0001395  99.5020 260.6130 15.08836631146658
STARLINK-3503           
1 51865U 22022P   24292.89626562  .00000425  00000+0  44776-4 0  9998
2 51865  53.2133 124.2030 0001432  89.6310 270.4847 15.08835355146605
STARLINK-3553           
1 51866U 22022Q   24292.89353576  .00015418  00000+0  98437-3 0  9991
2 51866  53.2167 124.0696 0001376  86.5349 273.5800 15.08852113146608
STARLINK-3590           
1 51867U 22022R   24292.95881692  .00005017  00000+0  33295-3 0  9999
2 51867  53.2111 123.9234 0001468  95.0644 265.0516 15.08852477146613
STARLINK-3578           
1 51868U 22022S   24292.89993663  .00001926  00000+0  13907-3 0  9998
2 51868  53.2175 124.1847 0001452  78.0636 282.0519 15.08839304146607
STARLINK-3588           
1 51869U 22022T   24292.94777628  .00000814  00000+0  69251-4 0  9995
2 51869  53.2147 123.9731 0001657  96.0368 264.0813 15.08847482146619
STARLINK-3591           
1 51870U 22022U   24292.88890249  .00001690  00000+0  12424-3 0  9997
2 51870  53.2144 124.2357 0001355  95.0789 265.0357 15.08839102146655
STARLINK-3567           
1 51871U 22022V   24292.81161896  .00000493  00000+0  49094-4 0  9994
2 51871  53.2143 124.5833 0001378  91.4481 268.6669 15.08840437146637
STARLINK-3554           
1 51872U 22022W   24292.95146029  .00000887  00000+0  73792-4 0  9990
2 51872  53.2157 123.9565 0001346  87.5567 272.5579 15.08839820146610
STARLINK-3582           
1 51873U 22022X   24292.86778113  .00011481  00000+0  73783-3 0  9997
2 51873  53.2133 124.3398 0001315  95.8615 264.2527 15.08862585146600
STARLINK-3574           
1 51874U 22022Y   24293.27161866  .00004511  00000+0  30127-3 0  9996
2 51874  53.2130 122.5196 0001341  80.8214 279.2930 15.08847289146655
STARLINK-3585           
1 51875U 22022Z   24292.52089340  .00000453  00000+0  46587-4 0  9999
2 51875  53.2133 125.8004 0001695  88.9128 271.2058 15.08839085146555
STARLINK-3583           
1 51876U 22022AA  24292.93674006  .00000919  00000+0  75828-4 0  9991
2 51876  53.2145 124.0226 0001484  87.8790 272.2371 15.08841673146617
STARLINK-3556           
1 51877U 22022AB  24292.78677983  .00002938  00000+0  20261-3 0  9995
2 51877  53.2129 114.6941 0001295  85.2631 274.8509 15.08843826146720
STARLINK-3575           
1 51878U 22022AC  24292.92938071  .00003132  00000+0  21477-3 0  9997
2 51878  53.2140 124.0541 0001776  92.3844 267.7352 15.08846719146613
STARLINK-3572           
1 51879U 22022AD  24292.77941699  .00001019  00000+0  82082-4 0  9993
2 51879  53.2147 114.7261 0001683  95.8456 264.2728 15.08846540146723
STARLINK-3566           
1 51880U 22022AE  24292.86679145  .00000889  00000+0  73911-4 0  9994
2 51880  53.2152 124.0560 0001224  90.6511 269.4622 15.08836048146602
STARLINK-3504           
1 51881U 22022AF  24292.83829393  .00002092  00000+0  14950-3 0  9999
2 51881  53.2152 114.4627 0001438  85.8725 274.2432 15.08842807146782
STARLINK-3570           
1 51882U 22022AG  24292.78405747  .00003454  00000+0  23494-3 0  9993
2 51882  53.2144 114.7162 0001420  89.8992 270.2163 15.08846244146777
STARLINK-3576           
1 51883U 22022AH  24292.78312430  .00003794  00000+0  25629-3 0  9999
2 51883  53.2145 114.8926 0001482  91.5335 268.5827 15.08843953146712
STARLINK-3577           
1 51884U 22022AJ  24292.90821533  .00002280  00000+0  16126-3 0  9994
2 51884  53.2157 114.1474 0001252  95.0227 265.0908 15.08848822146825
STARLINK-3584           
1 51885U 22022AK  24292.89350319  .00003058  00000+0  21012-3 0  9996
2 51885  53.2176 114.2122 0001410  82.9053 277.2099 15.08841583146739
STARLINK-3565           
1 51886U 22022AL  24292.90086333  .00001950  00000+0  14059-3 0  9993
2 51886  53.2155 114.1817 0001302  90.8206 269.2935 15.08841240146746
STARLINK-3551           
1 51887U 22022AM  24292.88982461  .00000708  00000+0  62564-4 0  9993
2 51887  53.2151 114.2294 0001821  83.1997 276.9202 15.08837614146732
STARLINK-3536           
1 51888U 22022AN  24293.22837908  .00003925  00000+0  26443-3 0  9997
2 51888  53.2126 112.7118 0001191  89.8813 270.2316 15.08854700146797
STARLINK-3547           
1 51889U 22022AP  24293.20998347  .00001239  00000+0  95945-4 0  9991
2 51889  53.2127 112.7959 0002037  85.8405 274.2820 15.08844286146786
STARLINK-3519           
1 51890U 22022AQ  24293.18661210  .00147328  00000+0  56596-2 0  9993
2 51890  53.1946 104.9441 0006704 178.9593 181.1421 15.25373571146890
