OBJECT_NAME,OBJECT_ID,EPOCH,MEAN_MOTION,ECCENTRICITY,INCLINATION,RA_OF_ASC_NODE,ARG_OF_PERICENTER,MEAN_ANOMALY,EPHEMERIS_TYPE,CLASSIFICATION_TYPE,NORAD_CAT_ID,ELEMENT_SET_NO,REV_AT_EPOCH,BSTAR,MEAN_MOTION_DOT,MEAN_MOTION_DDOT
STARLINK-3562,2022-022K,2024-10-18T21:51:49.048704,15.0883648,0.0001566,53.2145,124.1353,93.2209,266.8962,0,U,51861,999,14659,8.03E-05,9.91E-06,0
STARLINK-3508,2022-022L,2024-10-18T22:07:42.958272,15.0883568,0.0001366,53.215,124.0867,96.2755,263.8393,0,U,51862,999,14666,6.60E-05,7.62E-06,0
STARLINK-3555,2022-022M,2024-10-19T05:38:08.372832,15.08846323,0.0001414,53.214,122.682,90.8059,269.3095,0,U,51863,999,14665,2.78E-04,4.14E-05,0
STARLINK-3548,2022-022N,2024-10-18T21:46:30.262944,15.08836631,0.0001395,53.2144,124.075,99.502,260.613,0,U,51864,999,14665,1.20E-04,1.62E-05,0
STARLINK-3503,2022-022P,2024-10-18T21:30:37.349568,15.08835355,0.0001432,53.2133,124.203,89.631,270.4847,0,U,51865,999,14660,4.48E-05,4.25E-06,0
STARLINK-3553,2022-022Q,2024-10-18T21:26:41.489664,15.08852113,0.0001376,53.2167,124.0696,86.5349,273.58,0,U,51866,999,14660,9.84E-04,1.54E-04,0
STARLINK-3590,2022-022R,2024-10-18T23:00:41.781888,15.08852477,0.0001468,53.2111,123.9234,95.0644,265.0516,0,U,51867,999,14661,3.33E-04,5.02E-05,0
STARLINK-3578,2022-022S,2024-10-18T21:35:54.524832,15.08839304,0.0001452,53.2175,124.1847,78.0636,282.0519,0,U,51868,999,14660,1.39E-04,1.93E-05,0
STARLINK-3588,2022-022T,2024-10-18T22:44:47.870592,15.08847482,0.0001657,53.2147,123.9731,96.0368,264.0813,0,U,51869,999,14661,6.93E-05,8.14E-06,0
STARLINK-3591,2022-022U,2024-10-18T21:20:01.175136,15.08839102,0.0001355,53.2144,124.2357,95.0789,265.0357,0,U,51870,999,14665,1.24E-04,1.69E-05,0
STARLINK-3567,2022-022V,2024-10-18T19:28:43.878144,15.08840437,0.0001378,53.2143,124.5833,91.4481,268.6669,0,U,51871,999,14663,4.91E-05,4.93E-06,0
STARLINK-3554,2022-022W,2024-10-18T22:50:06.169056,15.0883982,0.0001346,53.2157,123.9565,87.5567,272.5579,0,U,51872,999,14661,7.38E-05,8.87E-06,0
STARLINK-3582,2022-022X,2024-10-18T20:49:36.289632,15.08862585,0.0001315,53.2133,124.3398,95.8615,264.2527,0,U,51873,999,14660,7.38E-04,1.15E-04,0
STARLINK-3574,2022-022Y,2024-10-19T06:31:07.852224,15.08847289,0.0001341,53.213,122.5196,80.8214,279.293,0,U,51874,999,14665,3.01E-04,4.51E-05,0
STARLINK-3585,2022-022Z,2024-10-18T12:30:05.189760,15.08839085,0.0001695,53.2133,125.8004,88.9128,271.2058,0,U,51875,999,14655,4.66E-05,4.53E-06,0
STARLINK-3583,2022-022AA,2024-10-18T22:28:54.341184,15.08841673,0.0001484,53.2145,124.0226,87.879,272.2371,0,U,51876,999,14661,7.58E-05,9.19E-06,0
STARLINK-3556,2022-022AB,2024-10-18T18:52:57.777312,15.08843826,0.0001295,53.2129,114.6941,85.2631,274.8509,0,U,51877,999,14672,2.03E-04,2.94E-05,0
STARLINK-3575,2022-022AC,2024-10-18T22:18:18.493344,15.08846719,0.0001776,53.214,124.0541,92.3844,267.7352,0,U,51878,999,14661,2.15E-04,3.13E-05,0
STARLINK-3572,2022-022AD,2024-10-18T18:42:21.627936,15.0884654,0.0001683,53.2147,114.7261,95.8456,264.2728,0,U,51879,999,14672,8.21E-05,1.02E-05,0
STARLINK-3566,2022-022AE,2024-10-18T20:48:10.781280,15.08836048,0.0001224,53.2152,124.056,90.6511,269.4622,0,U,51880,999,14660,7.39E-05,8.89E-06,0
STARLINK-3504,2022-022AF,2024-10-18T20:07:08.595552,15.08842807,0.0001438,53.2152,114.4627,85.8725,274.2432,0,U,51881,999,14678,1.50E-04,2.09E-05,0
STARLINK-3570,2022-022AG,2024-10-18T18:49:02.565408,15.08846244,0.000142,53.2144,114.7162,89.8992,270.2163,0,U,51882,999,14677,2.35E-04,3.45E-05,0
STARLINK-3576,2022-022AH,2024-10-18T18:47:41.939520,15.08843953,0.0001482,53.2145,114.8926,91.5335,268.5827,0,U,51883,999,14671,2.56E-04,3.79E-05,0
STARLINK-3577,2022-022AJ,2024-10-18T21:47:49.804512,15.08848822,0.0001252,53.2157,114.1474,95.0227,265.0908,0,U,51884,999,14682,1.61E-04,2.28E-05,0
STARLINK-3584,2022-022AK,2024-10-18T21:26:38.675616,15.08841583,0.000141,53.2176,114.2122,82.9053,277.2099,0,U,51885,999,14673,2.10E-04,3.06E-05,0
STARLINK-3565,2022-022AL,2024-10-18T21:37:14.591712,15.0884124,0.0001302,53.2155,114.1817,90.8206,269.2935,0,U,51886,999,14674,1.41E-04,1.95E-05,0
STARLINK-3551,2022-022AM,2024-10-18T21:21:20.846304,15.08837614,0.0001821,53.2151,114.2294,83.1997,276.9202,0,U,51887,999,14673,6.26E-05,7.08E-06,0
STARLINK-3536,2022-022AN,2024-10-19T05:28:51.952512,15.088547,0.0001191,53.2126,112.7118,89.8813,270.2316,0,U,51888,999,14679,2.64E-04,3.93E-05,0
STARLINK-3547,2022-022AP,2024-10-19T05:02:22.571808,15.08844286,0.0002037,53.2127,112.7959,85.8405,274.282,0,U,51889,999,14678,9.59E-05,1.24E-05,0
STARLINK-3519,2022-022AQ,2024-10-19T04:28:43.285440,15.25373571,0.0006704,53.1946,104.9441,178.9593,181.1421,0,U,51890,999,14689,5.66E-03,1.47E-03,0
